{
 "generated_at": "2026-07-11T07:11:30Z",
 "sources": [
  {
   "name": "CelesTrak",
   "url": "https://celestrak.org/NORAD/elements/",
   "license": "frei verfügbar; Attribution. Ursprünglich USSPACECOM/Space-Track."
  },
  {
   "name": "GCAT (J. McDowell, planet4589.org)",
   "url": "https://planet4589.org/space/gcat/",
   "license": "CC-BY 4.0"
  }
 ],
 "satellites": [
  {
   "norad": 46497,
   "name": "ICEYE-X6",
   "intl": "2020-068M",
   "group": "sar",
   "gcat": {
    "class": "B",
    "category": "IMG-R",
    "owner": "ICEYE",
    "state": "FI"
   },
   "omm": {
    "OBJECT_NAME": "ICEYE-X6",
    "OBJECT_ID": "2020-068M",
    "EPOCH": "2026-07-10T20:48:27.645696",
    "MEAN_MOTION": 15.04650022,
    "ECCENTRICITY": 0.0007592,
    "INCLINATION": 98.098,
    "RA_OF_ASC_NODE": 186.6726,
    "ARG_OF_PERICENTER": 22.3986,
    "MEAN_ANOMALY": 337.7568,
    "EPHEMERIS_TYPE": 0,
    "CLASSIFICATION_TYPE": "U",
    "NORAD_CAT_ID": 46497,
    "ELEMENT_SET_NO": 999,
    "REV_AT_EPOCH": 31679,
    "BSTAR": 0.00016586,
    "MEAN_MOTION_DOT": 0.00002265,
    "MEAN_MOTION_DDOT": 0
   }
  },
  {
   "norad": 66753,
   "name": "ICEYE-X60",
   "intl": "2025-276CR",
   "group": "sar",
   "gcat": {
    "class": "B",
    "category": "IMG-R",
    "owner": "ELKED",
    "state": "GR"
   },
   "omm": {
    "OBJECT_NAME": "ICEYE-X60",
    "OBJECT_ID": "2025-276CR",
    "EPOCH": "2026-07-10T08:00:03.000384",
    "MEAN_MOTION": 15.11432187,
    "ECCENTRICITY": 0.00012507,
    "INCLINATION": 97.4185,
    "RA_OF_ASC_NODE": 263.3145,
    "ARG_OF_PERICENTER": 331.6983,
    "MEAN_ANOMALY": 212.3455,
    "EPHEMERIS_TYPE": 0,
    "CLASSIFICATION_TYPE": "U",
    "NORAD_CAT_ID": 66753,
    "ELEMENT_SET_NO": 999,
    "REV_AT_EPOCH": 581,
    "BSTAR": -0.0029888108,
    "MEAN_MOTION_DOT": -0.00050185,
    "MEAN_MOTION_DDOT": 0
   }
  },
  {
   "norad": 66754,
   "name": "ICEYE-X61",
   "intl": "2025-276CS",
   "group": "sar",
   "gcat": {
    "class": "B",
    "category": "IMG-R",
    "owner": "ARGUS/MON",
    "state": "PL"
   },
   "omm": {
    "OBJECT_NAME": "ICEYE-X61",
    "OBJECT_ID": "2025-276CS",
    "EPOCH": "2026-07-10T14:51:46.802016",
    "MEAN_MOTION": 15.18593094,
    "ECCENTRICITY": 0.0001733,
    "INCLINATION": 97.4195,
    "RA_OF_ASC_NODE": 264.6725,
    "ARG_OF_PERICENTER": 237.29,
    "MEAN_ANOMALY": 122.8167,
    "EPHEMERIS_TYPE": 0,
    "CLASSIFICATION_TYPE": "U",
    "NORAD_CAT_ID": 66754,
    "ELEMENT_SET_NO": 999,
    "REV_AT_EPOCH": 3397,
    "BSTAR": 0.0001061,
    "MEAN_MOTION_DOT": 0.00002127,
    "MEAN_MOTION_DDOT": 0
   }
  },
  {
   "norad": 66755,
   "name": "ICEYE-X62",
   "intl": "2025-276CT",
   "group": "sar",
   "gcat": {
    "class": "B",
    "category": "IMG-R",
    "owner": "ICEYE",
    "state": "FI"
   },
   "omm": {
    "OBJECT_NAME": "ICEYE-X62",
    "OBJECT_ID": "2025-276CT",
    "EPOCH": "2026-07-08T17:33:38.443680",
    "MEAN_MOTION": 15.10117598,
    "ECCENTRICITY": 0.00007834,
    "INCLINATION": 97.4194,
    "RA_OF_ASC_NODE": 261.2654,
    "ARG_OF_PERICENTER": 320.3388,
    "MEAN_ANOMALY": 39.7785,
    "EPHEMERIS_TYPE": 0,
    "CLASSIFICATION_TYPE": "U",
    "NORAD_CAT_ID": 66755,
    "ELEMENT_SET_NO": 999,
    "REV_AT_EPOCH": 3358,
    "BSTAR": 0.000094518905,
    "MEAN_MOTION_DOT": 0.00001479,
    "MEAN_MOTION_DDOT": 0
   }
  },
  {
   "norad": 67372,
   "name": "ICEYE-X63",
   "intl": "2026-004K",
   "group": "sar",
   "gcat": {
    "class": "B",
    "category": "IMG-R",
    "owner": "ICEYE",
    "state": "FI"
   },
   "omm": {
    "OBJECT_NAME": "ICEYE-X63",
    "OBJECT_ID": "2026-004K",
    "EPOCH": "2026-07-10T16:19:03.406656",
    "MEAN_MOTION": 14.88343806,
    "ECCENTRICITY": 0.0005625,
    "INCLINATION": 97.801,
    "RA_OF_ASC_NODE": 189.9527,
    "ARG_OF_PERICENTER": 62.817,
    "MEAN_ANOMALY": 297.362,
    "EPHEMERIS_TYPE": 0,
    "CLASSIFICATION_TYPE": "U",
    "NORAD_CAT_ID": 67372,
    "ELEMENT_SET_NO": 999,
    "REV_AT_EPOCH": 2679,
    "BSTAR": 0.000069378,
    "MEAN_MOTION_DOT": 0.00000588,
    "MEAN_MOTION_DDOT": 0
   }
  },
  {
   "norad": 67373,
   "name": "ICEYE-X64",
   "intl": "2026-004L",
   "group": "sar",
   "gcat": {
    "class": "D",
    "category": "IMG-R",
    "owner": "PUOL",
    "state": "FI"
   },
   "omm": {
    "OBJECT_NAME": "ICEYE-X64",
    "OBJECT_ID": "2026-004L",
    "EPOCH": "2026-07-10T14:13:56.858016",
    "MEAN_MOTION": 14.87980468,
    "ECCENTRICITY": 0.0007473,
    "INCLINATION": 97.8024,
    "RA_OF_ASC_NODE": 189.7883,
    "ARG_OF_PERICENTER": 66.2935,
    "MEAN_ANOMALY": 293.9065,
    "EPHEMERIS_TYPE": 0,
    "CLASSIFICATION_TYPE": "U",
    "NORAD_CAT_ID": 67373,
    "ELEMENT_SET_NO": 999,
    "REV_AT_EPOCH": 2677,
    "BSTAR": 0.00009153,
    "MEAN_MOTION_DOT": 0.00000785,
    "MEAN_MOTION_DDOT": 0
   }
  },
  {
   "norad": 66300,
   "name": "ICEYE-X65",
   "intl": "2025-248H",
   "group": "sar",
   "gcat": {
    "class": "B",
    "category": "IMG-R",
    "owner": "SP42",
    "state": "UAE"
   },
   "omm": {
    "OBJECT_NAME": "ICEYE-X65",
    "OBJECT_ID": "2025-248H",
    "EPOCH": "2026-07-09T22:32:54.794976",
    "MEAN_MOTION": 15.07908239,
    "ECCENTRICITY": 0.0004928,
    "INCLINATION": 45.4054,
    "RA_OF_ASC_NODE": 14.538,
    "ARG_OF_PERICENTER": 169.9214,
    "MEAN_ANOMALY": 190.1767,
    "EPHEMERIS_TYPE": 0,
    "CLASSIFICATION_TYPE": "U",
    "NORAD_CAT_ID": 66300,
    "ELEMENT_SET_NO": 999,
    "REV_AT_EPOCH": 3895,
    "BSTAR": 0.00014071479,
    "MEAN_MOTION_DOT": 0.00001945,
    "MEAN_MOTION_DDOT": 0
   }
  },
  {
   "norad": 66301,
   "name": "ICEYE-X66",
   "intl": "2025-248J",
   "group": "sar",
   "gcat": {
    "class": "B",
    "category": "IMG-R",
    "owner": "SP42",
    "state": "UAE"
   },
   "omm": {
    "OBJECT_NAME": "ICEYE-X66",
    "OBJECT_ID": "2025-248J",
    "EPOCH": "2026-07-10T11:18:25.894656",
    "MEAN_MOTION": 15.09157777,
    "ECCENTRICITY": 0.00046055,
    "INCLINATION": 45.4022,
    "RA_OF_ASC_NODE": 10.8728,
    "ARG_OF_PERICENTER": 169.2953,
    "MEAN_ANOMALY": 190.8028,
    "EPHEMERIS_TYPE": 0,
    "CLASSIFICATION_TYPE": "U",
    "NORAD_CAT_ID": 66301,
    "ELEMENT_SET_NO": 999,
    "REV_AT_EPOCH": 3902,
    "BSTAR": 0.00013725205,
    "MEAN_MOTION_DOT": 0.00001963,
    "MEAN_MOTION_DDOT": 0
   }
  },
  {
   "norad": 66302,
   "name": "ICEYE-X67",
   "intl": "2025-248K",
   "group": "sar",
   "gcat": {
    "class": "B",
    "category": "IMG-R",
    "owner": "SP42",
    "state": "UAE"
   },
   "omm": {
    "OBJECT_NAME": "ICEYE-X67",
    "OBJECT_ID": "2025-248K",
    "EPOCH": "2026-07-10T11:53:54.034656",
    "MEAN_MOTION": 15.09139997,
    "ECCENTRICITY": 0.0006224,
    "INCLINATION": 45.4059,
    "RA_OF_ASC_NODE": 10.3192,
    "ARG_OF_PERICENTER": 169.5967,
    "MEAN_ANOMALY": 190.5044,
    "EPHEMERIS_TYPE": 0,
    "CLASSIFICATION_TYPE": "U",
    "NORAD_CAT_ID": 66302,
    "ELEMENT_SET_NO": 999,
    "REV_AT_EPOCH": 3904,
    "BSTAR": 0.00016683,
    "MEAN_MOTION_DOT": 0.00002439,
    "MEAN_MOTION_DDOT": 0
   }
  },
  {
   "norad": 46496,
   "name": "ICEYE-X7",
   "intl": "2020-068L",
   "group": "sar",
   "gcat": {
    "class": "B",
    "category": "IMG-R",
    "owner": "ICEYE",
    "state": "FI"
   },
   "omm": {
    "OBJECT_NAME": "ICEYE-X7",
    "OBJECT_ID": "2020-068L",
    "EPOCH": "2026-07-10T20:30:52.660224",
    "MEAN_MOTION": 15.32037853,
    "ECCENTRICITY": 0.0005611,
    "INCLINATION": 97.7498,
    "RA_OF_ASC_NODE": 159.4663,
    "ARG_OF_PERICENTER": 232.0247,
    "MEAN_ANOMALY": 128.0487,
    "EPHEMERIS_TYPE": 0,
    "CLASSIFICATION_TYPE": "U",
    "NORAD_CAT_ID": 46496,
    "ELEMENT_SET_NO": 999,
    "REV_AT_EPOCH": 31841,
    "BSTAR": 0.00024971,
    "MEAN_MOTION_DOT": 0.00007643,
    "MEAN_MOTION_DDOT": 0
   }
  }
 ]
}
