ICEYE-X7                
1 46496U 20068L   26191.85477616  .00007643  00000+0  24971-3 0  9993
2 46496  97.7498 159.4663 0005611 232.0247 128.0487 15.32037853318416
ICEYE-X6                
1 46497U 20068M   26191.86698664  .00002265  00000+0  16586-3 0  9991
2 46497  98.0980 186.6726 0007592  22.3986 337.7568 15.04650022316795
ICEYE-X65               
1 66300U 25248H   26190.93952309  .00001945  00000+0  14071-3 0  9998
2 66300  45.4054  14.5380 0004928 169.9214 190.1767 15.07908239 38955
ICEYE-X66               
1 66301U 25248J   26191.47113304  .00001963  00000+0  13725-3 0  9998
2 66301  45.4022  10.8728 0004605 169.2953 190.8028 15.09157777 39022
ICEYE-X67               
1 66302U 25248K   26191.49576429  .00002439  00000+0  16683-3 0  9997
2 66302  45.4059  10.3192 0006224 169.5967 190.5044 15.09139997 39041
ICEYE-X60               
1 66753U 25276CR  26191.33336806 -.00050185  00000+0 -29888-2 0  9997
2 66753  97.4185 263.3145 0001250 331.6983 212.3455 15.11432187  5817
ICEYE-X61               
1 66754U 25276CS  26191.61929169  .00002127  00000+0  10610-3 0  9994
2 66754  97.4195 264.6725 0001733 237.2900 122.8167 15.18593094 33978
ICEYE-X62               
1 66755U 25276CT  26189.73169495  .00001479  00000+0  94519-4 0  9993
2 66755  97.4194 261.2654 0000783 320.3388  39.7785 15.10117598 33582
ICEYE-X63               
1 67372U 26004K   26191.67990054  .00000588  00000+0  69378-4 0  9993
2 67372  97.8010 189.9527 0005625  62.8170 297.3620 14.88343806 26793
ICEYE-X64               
1 67373U 26004L   26191.59301919  .00000785  00000+0  91530-4 0  9995
2 67373  97.8024 189.7883 0007473  66.2935 293.9065 14.87980468 26775
